[{"OBJECT_NAME":"STARLINK-4397","OBJECT_ID":"2022-084S","EPOCH":"2026-03-09T16:57:51.050304","MEAN_MOTION":15.05643228,"ECCENTRICITY":0.00016999,"INCLINATION":97.6032,"RA_OF_ASC_NODE":131.2445,"ARG_OF_PERICENTER":89.1594,"MEAN_ANOMALY":270.9828,"EPHEMERIS_TYPE":0,"CLASSIFICATION_TYPE":"U","NORAD_CAT_ID":53205,"ELEMENT_SET_NO":999,"REV_AT_EPOCH":19938,"BSTAR":6.8880493e-5,"MEAN_MOTION_DOT":9.33e-6,"MEAN_MOTION_DDOT":0},{"OBJECT_NAME":"PSLV DEB","OBJECT_ID":"2001-049CG","EPOCH":"2026-03-09T17:57:10.653408","MEAN_MOTION":15.10779615,"ECCENTRICITY":0.00259315,"INCLINATION":97.9011,"RA_OF_ASC_NODE":146.9612,"ARG_OF_PERICENTER":307.1678,"MEAN_ANOMALY":170.9563,"EPHEMERIS_TYPE":0,"CLASSIFICATION_TYPE":"U","NORAD_CAT_ID":27136,"ELEMENT_SET_NO":999,"REV_AT_EPOCH":32989,"BSTAR":0.00047952924,"MEAN_MOTION_DOT":7.956e-5,"MEAN_MOTION_DDOT":0}]
